NORAD_CAT_ID,OBJECT_NAME,OBJECT_TYPE,EPOCH,MEAN_MOTION,ECCENTRICITY,INCLINATION,RA_OF_ASC_NODE,ARG_OF_PERICENTER,MEAN_ANOMALY,BSTAR,MEAN_MOTION_DOT,MEAN_MOTION_DDOT,TLE_LINE0,TLE_LINE1,TLE_LINE2,SEMIMAJOR_AXIS,PERIOD,APOGEE,PERIGEE,DECAYED
52996.0,STARLINK-4295,PAYLOAD,2024-04-24 16:50:32,15.08843674,0.0001221,53.2169,284.6605,93.0535,267.0597,0.00018105,2.595e-05,0.0,0 STARLINK-4295,1 52996U 22076L   24115.70177010  .00002595  00000-0  18105-3 0  9993,2 52996  53.2169 284.6605 0001221  93.0535 267.0597 15.08843674 99584,6917.869,95.437,540.579,538.889,0.0
52996.0,STARLINK-4295,PAYLOAD,2024-04-25 15:05:57,15.08836896,0.0001268,53.2165,280.5004,100.7916,259.3219,-0.00013605,-2.452e-05,0.0,0 STARLINK-4295,1 52996U 22076L   24116.62913355 -.00002452  00000-0 -13605-3 0  9999,2 52996  53.2165 280.5004 0001268 100.7916 259.3219 15.08836896 99727,6917.89,95.438,540.632,538.878,0.0
52996.0,STARLINK-4295,PAYLOAD,2024-04-25 19:52:06,15.08848034,0.0001266,53.2171,279.6058,116.863,243.2491,0.00013508,1.863e-05,0.0,0 STARLINK-4295,1 52996U 22076L   24116.82784925  .00001863  00000-0  13508-3 0  9995,2 52996  53.2171 279.6058 0001266 116.8630 243.2491 15.08848034100220,6917.856,95.437,540.597,538.845,0.0
52996.0,STARLINK-4295,PAYLOAD,2024-04-26 10:10:34,15.08836371,0.0001545,53.2165,276.9276,147.3209,212.7879,-2.5329e-05,-6.91e-06,0.0,0 STARLINK-4295,1 52996U 22076L   24117.42401254 -.00000691  00000-0 -25329-4 0  9998,2 52996  53.2165 276.9276 0001545 147.3209 212.7879 15.08836371100318,6917.891,95.438,540.825,538.688,0.0
52996.0,STARLINK-4295,PAYLOAD,2024-04-26 14:56:43,15.08845445,0.0001635,53.2167,276.0404,117.3355,242.7803,0.00011358,1.52e-05,0.0,0 STARLINK-4295,1 52996U 22076L   24117.62273083  .00001520  00000-0  11358-3 0  9993,2 52996  53.2167 276.0404 0001635 117.3355 242.7803 15.08845445 99873,6917.864,95.437,540.86,538.598,0.0
52996.0,STARLINK-4295,PAYLOAD,2024-04-26 16:32:07,15.0884541,0.0001407,53.2168,275.7445,101.601,258.514,0.00012673,1.73e-05,0.0,0 STARLINK-4295,1 52996U 22076L   24117.68897244  .00001730  00000-0  12673-3 0  9994,2 52996  53.2168 275.7445 0001407 101.6010 258.5140 15.08845410 99888,6917.864,95.437,540.702,538.756,0.0
52996.0,STARLINK-4295,PAYLOAD,2024-04-27 03:39:49,15.08847103,0.0001459,53.2172,273.6598,78.5962,281.5194,0.00025211,3.727e-05,0.0,0 STARLINK-4295,1 52996U 22076L   24118.15265227  .00003727  00000-0  25211-3 0  9997,2 52996  53.2172 273.6598 0001459  78.5962 281.5194 15.08847103100423,6917.859,95.437,540.733,538.714,0.0
52996.0,STARLINK-4295,PAYLOAD,2024-04-27 17:58:16,15.08852873,0.0001162,53.2162,270.9813,81.2542,278.8582,0.00019773,2.861e-05,0.0,0 STARLINK-4295,1 52996U 22076L   24118.74880570  .00002861  00000-0  19773-3 0  9990,2 52996  53.2162 270.9813 0001162  81.2542 278.8582 15.08852873100046,6917.841,95.437,540.51,538.902,0.0
52996.0,STARLINK-4295,PAYLOAD,2024-04-28 03:30:35,15.08844612,0.0001254,53.2162,269.1996,90.7856,269.328,3.2534e-05,2.3e-06,0.0,0 STARLINK-4295,1 52996U 22076L   24119.14624957  .00000230  00000-0  32534-4 0  9999,2 52996  53.2162 269.1996 0001254  90.7856 269.3280 15.08844612100573,6917.866,95.437,540.599,538.864,0.0
52996.0,STARLINK-4295,PAYLOAD,2024-04-28 14:38:18,15.08834883,0.0001734,53.2173,267.1156,93.1533,266.9658,-0.00020839,-3.603e-05,0.0,0 STARLINK-4295,1 52996U 22076L   24119.60993735 -.00003603  00000-0 -20839-3 0  9996,2 52996  53.2173 267.1156 0001734  93.1533 266.9658 15.08834883100170,6917.896,95.438,540.961,538.561,0.0
52996.0,STARLINK-4295,PAYLOAD,2024-04-28 19:24:27,15.08834593,0.0001319,53.2178,266.223,96.8451,263.2691,-0.00018468,-3.225e-05,0.0,0 STARLINK-4295,1 52996U 22076L   24119.80865720 -.00003225  00000-0 -18468-3 0  9995,2 52996  53.2178 266.2230 0001319  96.8451 263.2691 15.08834593100676,6917.897,95.438,540.674,538.849,0.0
52996.0,STARLINK-4295,PAYLOAD,2024-04-29 14:29:05,15.08836577,0.0001191,53.2171,262.6593,74.0419,286.0704,9.1036e-05,1.161e-05,0.0,0 STARLINK-4295,1 52996U 22076L   24120.60354140  .00001161  00000-0  91036-4 0  9992,2 52996  53.2171 262.6593 0001191  74.0419 286.0704 15.08836577100325,6917.891,95.438,540.58,538.932,0.0
52996.0,STARLINK-4295,PAYLOAD,2024-04-29 16:04:28,15.08842425,0.0001167,53.2168,262.3615,74.3291,285.783,3.5674e-05,2.8e-06,0.0,0 STARLINK-4295,1 52996U 22076L   24120.66977867  .00000280  00000-0  35674-4 0  9992,2 52996  53.2168 262.3615 0001167  74.3291 285.7830 15.08842425100333,6917.873,95.437,540.545,538.931,0.0
52996.0,STARLINK-4295,PAYLOAD,2024-04-30 14:19:53,15.08840211,0.0001169,53.2161,258.1971,83.3063,276.8062,0.00033763,5.09e-05,0.0,0 STARLINK-4295,1 52996U 22076L   24121.59714286  .00005090  00000-0  33763-3 0  9999,2 52996  53.2161 258.1971 0001169  83.3063 276.8062 15.08840211100477,6917.88,95.438,540.553,538.936,0.0
52996.0,STARLINK-4295,PAYLOAD,2024-04-30 15:55:16,15.08845948,0.0001206,53.217,257.8998,83.2225,276.8904,0.0002727,4.055e-05,0.0,0 STARLINK-4295,1 52996U 22076L   24121.66338036  .00004055  00000-0  27270-3 0  9998,2 52996  53.2170 257.8998 0001206  83.2225 276.8904 15.08845948100481,6917.862,95.437,540.562,538.893,0.0
52996.0,STARLINK-4295,PAYLOAD,2024-05-01 01:27:34,15.08844864,0.0001195,53.2163,256.1155,82.11,278.0027,0.00025459,3.767e-05,0.0,0 STARLINK-4295,1 52996U 22076L   24122.06082071  .00003767  00000-0  25459-3 0  9994,2 52996  53.2163 256.1155 0001195  82.1100 278.0027 15.08844864101013,6917.866,95.437,540.557,538.904,0.0
52996.0,STARLINK-4295,PAYLOAD,2024-05-01 09:24:30,15.08846176,0.0001304,53.2171,254.6296,85.5049,274.6093,0.0001792,2.566e-05,0.0,0 STARLINK-4295,1 52996U 22076L   24122.39201980  .00002566  00000-0  17920-3 0  9992,2 52996  53.2171 254.6296 0001304  85.5049 274.6093 15.08846176100597,6917.862,95.437,540.629,538.824,0.0
52996.0,STARLINK-4295,PAYLOAD,2024-05-01 15:46:02,15.08850928,0.0001263,53.2177,253.4413,90.6228,269.4909,0.00027079,4.026e-05,0.0,0 STARLINK-4295,1 52996U 22076L   24122.65697546  .00004026  00000-0  27079-3 0  9997,2 52996  53.2177 253.4413 0001263  90.6228 269.4909 15.08850928100634,6917.847,95.437,540.586,538.838,0.0
52996.0,STARLINK-4295,PAYLOAD,2024-05-02 12:26:04,15.08832893,0.0001456,53.2167,249.5745,97.173,262.9427,-0.00018494,-3.229e-05,0.0,0 STARLINK-4295,1 52996U 22076L   24123.51810213 -.00003229  00000-0 -18494-3 0  9998,2 52996  53.2167 249.5745 0001456  97.1730 262.9427 15.08832893101232,6917.902,95.438,540.774,538.76,0.0
52996.0,STARLINK-4295,PAYLOAD,2024-05-02 14:01:27,15.08830844,0.0001331,53.216,249.2745,82.878,277.2363,-0.0001408,-2.527e-05,0.0,0 STARLINK-4295,1 52996U 22076L   24123.58434413 -.00002527  00000-0 -14080-3 0  9996,2 52996  53.2160 249.2745 0001331  82.8780 277.2363 15.08830844100770,6917.908,95.438,540.694,538.853,0.0
52996.0,STARLINK-4295,PAYLOAD,2024-05-03 01:09:09,15.08839921,0.0001397,53.2176,247.1963,93.3017,266.8135,6.1262e-05,6.87e-06,0.0,0 STARLINK-4295,1 52996U 22076L   24124.04802115  .00000687  00000-0  61262-4 0  9994,2 52996  53.2176 247.1963 0001397  93.3017 266.8135 15.08839921101315,6917.881,95.438,540.712,538.779,0.0
52996.0,STARLINK-4295,PAYLOAD,2024-05-03 13:52:14,15.08844816,0.0001494,53.217,244.8174,89.7447,270.3716,0.00019041,2.744e-05,0.0,0 STARLINK-4295,1 52996U 22076L   24124.57793983  .00002744  00000-0  19041-3 0  9997,2 52996  53.2170 244.8174 0001494  89.7447 270.3716 15.08844816100921,6917.866,95.437,540.764,538.697,0.0
52996.0,STARLINK-4295,PAYLOAD,2024-05-03 17:02:59,15.08851527,0.0001092,53.215,244.2234,102.7846,257.3269,0.00030164,4.518e-05,0.0,0 STARLINK-4295,1 52996U 22076L   24124.71041468  .00004518  00000-0  30164-3 0  9997,2 52996  53.2150 244.2234 0001092 102.7846 257.3269 15.08851527101413,6917.845,95.437,540.466,538.955,0.0
52996.0,STARLINK-4295,PAYLOAD,2024-05-04 00:59:56,15.08835078,0.0001591,53.2159,242.7338,92.5764,267.5411,7.7715e-05,9.49e-06,0.0,0 STARLINK-4295,1 52996U 22076L   24125.04162370  .00000949  00000-0  77715-4 0  9998,2 52996  53.2159 242.7338 0001591  92.5764 267.5411 15.08835078101469,6917.895,95.438,540.861,538.66,0.0
52996.0,STARLINK-4295,PAYLOAD,2024-05-05 11:58:25,15.0885035,0.0001323,53.2167,236.1931,86.2527,273.8616,0.00027398,4.076e-05,0.0,0 STARLINK-4295,1 52996U 22076L   24126.49890347  .00004076  00000-0  27398-3 0  9996,2 52996  53.2167 236.1931 0001323  86.2527 273.8616 15.08850350101685,6917.849,95.437,540.629,538.799,0.0
52996.0,STARLINK-4295,PAYLOAD,2024-05-05 13:33:48,15.08851657,0.0001395,53.2166,235.8962,84.4966,275.6185,0.00031217,4.685e-05,0.0,0 STARLINK-4295,1 52996U 22076L   24126.56514348  .00004685  00000-0  31217-3 0  9999,2 52996  53.2166 235.8962 0001395  84.4966 275.6185 15.08851657101222,6917.845,95.437,540.675,538.745,0.0
52996.0,STARLINK-4295,PAYLOAD,2024-05-06 13:24:34,15.0886051,0.0001411,53.2165,231.4346,99.1734,260.9418,0.00049763,7.645e-05,0.0,0 STARLINK-4295,1 52996U 22076L   24127.55873712  .00007645  00000-0  49763-3 0  9996,2 52996  53.2165 231.4346 0001411  99.1734 260.9418 15.08860510101846,6917.818,95.436,540.659,538.707,0.0
52996.0,STARLINK-4295,PAYLOAD,2024-05-07 13:15:22,15.08844461,0.0001374,53.2175,226.9762,77.3027,282.8118,1.9783e-05,2.7e-07,0.0,0 STARLINK-4295,1 52996U 22076L   24128.55233898  .00000027  00000-0  19783-4 0  9999,2 52996  53.2175 226.9762 0001374  77.3027 282.8118 15.08844461101992,6917.867,95.437,540.682,538.781,0.0
52996.0,STARLINK-4295,PAYLOAD,2024-05-08 13:06:10,15.08822987,0.0001154,53.2159,222.5125,90.1459,269.9665,-0.00016117,-2.851e-05,0.0,0 STARLINK-4295,1 52996U 22076L   24129.54595779 -.00002851  00000-0 -16117-3 0  9994,2 52996  53.2159 222.5125 0001154  90.1459 269.9665 15.08822987102147,6917.932,95.439,540.596,538.999,0.0
52996.0,STARLINK-4295,PAYLOAD,2024-05-08 22:38:29,15.08832973,0.0001013,53.2159,220.7268,83.033,277.0777,0.00010776,1.427e-05,0.0,0 STARLINK-4295,1 52996U 22076L   24129.94339560  .00001427  00000-0  10776-3 0  9993,2 52996  53.2159 220.7268 0001013  83.0330 277.0777 15.08832973102205,6917.902,95.438,540.468,539.066,0.0
